[{"OBJECT_NAME":"STARLINK-31458","OBJECT_ID":"2024-071T","EPOCH":"2025-09-23T05:04:10.487136","MEAN_MOTION":15.27587278,"ECCENTRICITY":8.099e-5,"INCLINATION":43.0001,"RA_OF_ASC_NODE":205.4277,"ARG_OF_PERICENTER":289.7381,"MEAN_ANOMALY":70.3383,"EPHEMERIS_TYPE":0,"CLASSIFICATION_TYPE":"U","NORAD_CAT_ID":59501,"ELEMENT_SET_NO":999,"REV_AT_EPOCH":8259,"BSTAR":8.8644504e-5,"MEAN_MOTION_DOT":2.179e-5,"MEAN_MOTION_DDOT":0},{"OBJECT_NAME":"STARLINK-31357","OBJECT_ID":"2024-071U","EPOCH":"2025-09-23T04:23:40.786080","MEAN_MOTION":15.27591442,"ECCENTRICITY":0.0001273,"INCLINATION":42.9979,"RA_OF_ASC_NODE":206.074,"ARG_OF_PERICENTER":274.4638,"MEAN_ANOMALY":85.6068,"EPHEMERIS_TYPE":0,"CLASSIFICATION_TYPE":"U","NORAD_CAT_ID":59502,"ELEMENT_SET_NO":999,"REV_AT_EPOCH":8258,"BSTAR":0.00020526361,"MEAN_MOTION_DOT":5.392e-5,"MEAN_MOTION_DDOT":0},{"OBJECT_NAME":"STARLINK-31508","OBJECT_ID":"2024-071V","EPOCH":"2025-09-23T04:29:13.543584","MEAN_MOTION":15.27591636,"ECCENTRICITY":0.00011134,"INCLINATION":43,"RA_OF_ASC_NODE":206.1006,"ARG_OF_PERICENTER":264.7633,"MEAN_ANOMALY":95.3092,"EPHEMERIS_TYPE":0,"CLASSIFICATION_TYPE":"U","NORAD_CAT_ID":59503,"ELEMENT_SET_NO":999,"REV_AT_EPOCH":8258,"BSTAR":2.1039147e-5,"MEAN_MOTION_DOT":3.17e-6,"MEAN_MOTION_DDOT":0},{"OBJECT_NAME":"STARLINK-31535","OBJECT_ID":"2024-071W","EPOCH":"2025-09-23T05:17:47.513184","MEAN_MOTION":15.27590461,"ECCENTRICITY":7.479e-5,"INCLINATION":43.0072,"RA_OF_ASC_NODE":213.2768,"ARG_OF_PERICENTER":294.8565,"MEAN_ANOMALY":65.2209,"EPHEMERIS_TYPE":0,"CLASSIFICATION_TYPE":"U","NORAD_CAT_ID":59504,"ELEMENT_SET_NO":999,"REV_AT_EPOCH":8250,"BSTAR":6.7108037e-5,"MEAN_MOTION_DOT":1.586e-5,"MEAN_MOTION_DDOT":0},{"OBJECT_NAME":"STARLINK-31533","OBJECT_ID":"2024-071X","EPOCH":"2025-09-23T04:40:19.501824","MEAN_MOTION":15.27588072,"ECCENTRICITY":6.77e-5,"INCLINATION":42.9989,"RA_OF_ASC_NODE":206.1585,"ARG_OF_PERICENTER":262.8683,"MEAN_ANOMALY":97.2092,"EPHEMERIS_TYPE":0,"CLASSIFICATION_TYPE":"U","NORAD_CAT_ID":59505,"ELEMENT_SET_NO":999,"REV_AT_EPOCH":8258,"BSTAR":0.00024376876,"MEAN_MOTION_DOT":6.454e-5,"MEAN_MOTION_DDOT":0},{"OBJECT_NAME":"STARLINK-31524","OBJECT_ID":"2024-071Y","EPOCH":"2025-09-22T12:23:06.451296","MEAN_MOTION":15.27565684,"ECCENTRICITY":9.914e-5,"INCLINATION":42.9978,"RA_OF_ASC_NODE":202.5504,"ARG_OF_PERICENTER":261.7534,"MEAN_ANOMALY":98.3205,"EPHEMERIS_TYPE":0,"CLASSIFICATION_TYPE":"U","NORAD_CAT_ID":59506,"ELEMENT_SET_NO":999,"REV_AT_EPOCH":8256,"BSTAR":-0.00011665773,"MEAN_MOTION_DOT":-3.469e-5,"MEAN_MOTION_DDOT":0},{"OBJECT_NAME":"STARLINK-31635","OBJECT_ID":"2024-073A","EPOCH":"2025-09-22T11:22:47.920800","MEAN_MOTION":15.27599017,"ECCENTRICITY":0.00010444,"INCLINATION":43.0003,"RA_OF_ASC_NODE":187.6336,"ARG_OF_PERICENTER":264.3536,"MEAN_ANOMALY":95.7196,"EPHEMERIS_TYPE":0,"CLASSIFICATION_TYPE":"U","NORAD_CAT_ID":59511,"ELEMENT_SET_NO":999,"REV_AT_EPOCH":8045,"BSTAR":0.00057021728,"MEAN_MOTION_DOT":0.00015471,"MEAN_MOTION_DDOT":0},{"OBJECT_NAME":"STARLINK-31650","OBJECT_ID":"2024-073B","EPOCH":"2025-09-22T12:14:36.775104","MEAN_MOTION":15.27586558,"ECCENTRICITY":0.00012884,"INCLINATION":43.0016,"RA_OF_ASC_NODE":187.9064,"ARG_OF_PERICENTER":276.0759,"MEAN_ANOMALY":83.9946,"EPHEMERIS_TYPE":0,"CLASSIFICATION_TYPE":"U","NORAD_CAT_ID":59512,"ELEMENT_SET_NO":999,"REV_AT_EPOCH":8045,"BSTAR":0.000160903,"MEAN_MOTION_DOT":4.169e-5,"MEAN_MOTION_DDOT":0},{"OBJECT_NAME":"STARLINK-31658","OBJECT_ID":"2024-073C","EPOCH":"2025-09-22T09:46:37.806528","MEAN_MOTION":15.27581878,"ECCENTRICITY":0.00013342,"INCLINATION":43.0036,"RA_OF_ASC_NODE":148.1133,"ARG_OF_PERICENTER":261.1544,"MEAN_ANOMALY":98.9156,"EPHEMERIS_TYPE":0,"CLASSIFICATION_TYPE":"U","NORAD_CAT_ID":59513,"ELEMENT_SET_NO":999,"REV_AT_EPOCH":8089,"BSTAR":-1.1052073e-5,"MEAN_MOTION_DOT":-5.66e-6,"MEAN_MOTION_DDOT":0},{"OBJECT_NAME":"STARLINK-31669","OBJECT_ID":"2024-073E","EPOCH":"2025-09-22T11:37:36.483456","MEAN_MOTION":15.27583331,"ECCENTRICITY":9.354e-5,"INCLINATION":43,"RA_OF_ASC_NODE":187.7121,"ARG_OF_PERICENTER":263.8399,"MEAN_ANOMALY":96.2346,"EPHEMERIS_TYPE":0,"CLASSIFICATION_TYPE":"U","NORAD_CAT_ID":59515,"ELEMENT_SET_NO":999,"REV_AT_EPOCH":8045,"BSTAR":0.00034178279,"MEAN_MOTION_DOT":9.156e-5,"MEAN_MOTION_DDOT":0},{"OBJECT_NAME":"STARLINK-31671","OBJECT_ID":"2024-073F","EPOCH":"2025-09-23T01:02:39.969888","MEAN_MOTION":15.27593459,"ECCENTRICITY":0.00022374,"INCLINATION":43.0038,"RA_OF_ASC_NODE":185.0253,"ARG_OF_PERICENTER":277.8976,"MEAN_ANOMALY":82.1621,"EPHEMERIS_TYPE":0,"CLASSIFICATION_TYPE":"U","NORAD_CAT_ID":59516,"ELEMENT_SET_NO":999,"REV_AT_EPOCH":8053,"BSTAR":-1.1341587e-5,"MEAN_MOTION_DOT":-5.75e-6,"MEAN_MOTION_DDOT":0},{"OBJECT_NAME":"STARLINK-31674","OBJECT_ID":"2024-073G","EPOCH":"2025-09-22T11:54:15.397056","MEAN_MOTION":15.27585328,"ECCENTRICITY":0.00013734,"INCLINATION":43.0056,"RA_OF_ASC_NODE":187.8004,"ARG_OF_PERICENTER":292.1003,"MEAN_ANOMALY":67.9703,"EPHEMERIS_TYPE":0,"CLASSIFICATION_TYPE":"U","NORAD_CAT_ID":59517,"ELEMENT_SET_NO":999,"REV_AT_EPOCH":8045,"BSTAR":3.5239561e-5,"MEAN_MOTION_DOT":7.08e-6,"MEAN_MOTION_DDOT":0},{"OBJECT_NAME":"STARLINK-31679","OBJECT_ID":"2024-073J","EPOCH":"2025-09-22T11:43:24.206304","MEAN_MOTION":15.2758129,"ECCENTRICITY":9.362e-5,"INCLINATION":43.0029,"RA_OF_ASC_NODE":177.3543,"ARG_OF_PERICENTER":287.0381,"MEAN_ANOMALY":73.0368,"EPHEMERIS_TYPE":0,"CLASSIFICATION_TYPE":"U","NORAD_CAT_ID":59519,"ELEMENT_SET_NO":999,"REV_AT_EPOCH":8057,"BSTAR":0.0011209526,"MEAN_MOTION_DOT":0.00030714,"MEAN_MOTION_DDOT":0},{"OBJECT_NAME":"STARLINK-31370","OBJECT_ID":"2024-073K","EPOCH":"2025-09-22T12:25:43.052160","MEAN_MOTION":15.2757878,"ECCENTRICITY":9.561e-5,"INCLINATION":43.0028,"RA_OF_ASC_NODE":187.9616,"ARG_OF_PERICENTER":268.2192,"MEAN_ANOMALY":91.855,"EPHEMERIS_TYPE":0,"CLASSIFICATION_TYPE":"U","NORAD_CAT_ID":59520,"ELEMENT_SET_NO":999,"REV_AT_EPOCH":8045,"BSTAR":3.0718548e-5,"MEAN_MOTION_DOT":5.83e-6,"MEAN_MOTION_DDOT":0},{"OBJECT_NAME":"STARLINK-31404","OBJECT_ID":"2024-073L","EPOCH":"2025-09-23T01:13:45.097824","MEAN_MOTION":15.27599256,"ECCENTRICITY":0.0001535,"INCLINATION":42.9992,"RA_OF_ASC_NODE":185.0784,"ARG_OF_PERICENTER":263.5297,"MEAN_ANOMALY":96.538,"EPHEMERIS_TYPE":0,"CLASSIFICATION_TYPE":"U","NORAD_CAT_ID":59521,"ELEMENT_SET_NO":999,"REV_AT_EPOCH":8053,"BSTAR":7.6347068e-5,"MEAN_MOTION_DOT":1.84e-5,"MEAN_MOTION_DDOT":0},{"OBJECT_NAME":"STARLINK-31453","OBJECT_ID":"2024-073M","EPOCH":"2025-09-22T10:10:33.229344","MEAN_MOTION":15.2759078,"ECCENTRICITY":0.00014809,"INCLINATION":43.0009,"RA_OF_ASC_NODE":170.5085,"ARG_OF_PERICENTER":280.9851,"MEAN_ANOMALY":79.0834,"EPHEMERIS_TYPE":0,"CLASSIFICATION_TYPE":"U","NORAD_CAT_ID":59522,"ELEMENT_SET_NO":999,"REV_AT_EPOCH":8064,"BSTAR":2.0434432e-5,"MEAN_MOTION_DOT":3.0e-6,"MEAN_MOTION_DDOT":0}]
