STARLINK-31458          
1 59501U 24071T   25266.21123249  .00002179  00000+0  88645-4 0  9992
2 59501  43.0001 205.4277 0000809 289.7381  70.3383 15.27587278 82592
STARLINK-31357          
1 59502U 24071U   25266.18311095  .00005392  00000+0  20526-3 0  9990
2 59502  42.9979 206.0740 0001273 274.4638  85.6068 15.27591442 82585
STARLINK-31508          
1 59503U 24071V   25266.18696231  .00000317  00000+0  21039-4 0  9992
2 59503  43.0000 206.1006 0001113 264.7633  95.3092 15.27591636 82589
STARLINK-31535          
1 59504U 24071W   25266.22068881  .00001586  00000+0  67108-4 0  9998
2 59504  43.0072 213.2768 0000747 294.8565  65.2209 15.27590461 82506
STARLINK-31533          
1 59505U 24071X   25266.19467016  .00006454  00000+0  24377-3 0  9997
2 59505  42.9989 206.1585 0000677 262.8683  97.2092 15.27588072 82586
STARLINK-31524          
1 59506U 24071Y   25265.51604689 -.00003469  00000+0 -11666-3 0  9994
2 59506  42.9978 202.5504 0000991 261.7534  98.3205 15.27565684 82568
STARLINK-31635          
1 59511U 24073A   25265.47416575  .00015471  00000+0  57022-3 0  9992
2 59511  43.0003 187.6336 0001044 264.3536  95.7196 15.27599017 80455
STARLINK-31650          
1 59512U 24073B   25265.51014786  .00004169  00000+0  16090-3 0  9998
2 59512  43.0016 187.9064 0001288 276.0759  83.9946 15.27586558 80456
STARLINK-31658          
1 59513U 24073C   25265.40738202 -.00000566  00000+0 -11052-4 0  9996
2 59513  43.0036 148.1133 0001334 261.1544  98.9156 15.27581878 80891
STARLINK-31669          
1 59515U 24073E   25265.48445004  .00009156  00000+0  34178-3 0  9996
2 59515  43.0000 187.7121 0000935 263.8399  96.2346 15.27583331 80453
STARLINK-31671          
1 59516U 24073F   25266.04351817 -.00000575  00000+0 -11342-4 0  9995
2 59516  43.0038 185.0253 0002237 277.8976  82.1621 15.27593459 80536
STARLINK-31674          
1 59517U 24073G   25265.49601154  .00000708  00000+0  35240-4 0  9995
2 59517  43.0056 187.8004 0001373 292.1003  67.9703 15.27585328 80451
STARLINK-31679          
1 59519U 24073J   25265.48847461  .00030714  00000+0  11210-2 0  9998
2 59519  43.0029 177.3543 0000936 287.0381  73.0368 15.27581290 80573
STARLINK-31370          
1 59520U 24073K   25265.51785940  .00000583  00000+0  30719-4 0  9995
2 59520  43.0028 187.9616 0000956 268.2192  91.8550 15.27578780 80453
STARLINK-31404          
1 59521U 24073L   25266.05121641  .00001840  00000+0  76347-4 0  9992
2 59521  42.9992 185.0784 0001535 263.5297  96.5380 15.27599256 80538
STARLINK-31453          
1 59522U 24073M   25265.42399571  .00000300  00000+0  20434-4 0  9998
2 59522  43.0009 170.5085 0001480 280.9851  79.0834 15.27590780 80646
